<?xml version="1.0" encoding="UTF-8"?>
<ndm xmlns:xsi="http://www.w3.org/2001/XMLSchema-instance" xsi:noNamespaceSchemaLocation="https://sanaregistry.org/r/ndmxml_unqualified/ndmxml-2.0.0-master-2.0.xsd">
<omm id="CCSDS_OMM_VERS" version="2.0">
<header><CREATION_DATE/><ORIGINATOR/></header><body><segment><metadata><OBJECT_NAME>KUIPER-00053</OBJECT_NAME><OBJECT_ID>2025-134P</OBJECT_ID><CENTER_NAME>EARTH</CENTER_NAME><REF_FRAME>TEME</REF_FRAME><TIME_SYSTEM>UTC</TIME_SYSTEM><MEAN_ELEMENT_THEORY>SGP4</MEAN_ELEMENT_THEORY></metadata><data><meanElements><EPOCH>2025-07-31T02:48:39.137760</EPOCH><MEAN_MOTION>15.36633967</MEAN_MOTION><ECCENTRICITY>.000183</ECCENTRICITY><INCLINATION>51.8762</INCLINATION><RA_OF_ASC_NODE>149.1573</RA_OF_ASC_NODE><ARG_OF_PERICENTER>218.4169</ARG_OF_PERICENTER><MEAN_ANOMALY>141.6687</MEAN_ANOMALY></meanElements><tleParameters><EPHEMERIS_TYPE>0</EPHEMERIS_TYPE><CLASSIFICATION_TYPE>U</CLASSIFICATION_TYPE><NORAD_CAT_ID>64513</NORAD_CAT_ID><ELEMENT_SET_NO>999</ELEMENT_SET_NO><REV_AT_EPOCH>657</REV_AT_EPOCH><BSTAR>.53681E-3</BSTAR><MEAN_MOTION_DOT>.19163E-3</MEAN_MOTION_DOT><MEAN_MOTION_DDOT>0</MEAN_MOTION_DDOT></tleParameters></data></segment></body></omm>
<omm id="CCSDS_OMM_VERS" version="2.0">
<header><CREATION_DATE/><ORIGINATOR/></header><body><segment><metadata><OBJECT_NAME>KUIPER-00054</OBJECT_NAME><OBJECT_ID>2025-134Q</OBJECT_ID><CENTER_NAME>EARTH</CENTER_NAME><REF_FRAME>TEME</REF_FRAME><TIME_SYSTEM>UTC</TIME_SYSTEM><MEAN_ELEMENT_THEORY>SGP4</MEAN_ELEMENT_THEORY></metadata><data><meanElements><EPOCH>2025-07-31T02:55:28.484544</EPOCH><MEAN_MOTION>15.36459294</MEAN_MOTION><ECCENTRICITY>.0002429</ECCENTRICITY><INCLINATION>51.8749</INCLINATION><RA_OF_ASC_NODE>149.1860</RA_OF_ASC_NODE><ARG_OF_PERICENTER>222.0017</ARG_OF_PERICENTER><MEAN_ANOMALY>138.0783</MEAN_ANOMALY></meanElements><tleParameters><EPHEMERIS_TYPE>0</EPHEMERIS_TYPE><CLASSIFICATION_TYPE>U</CLASSIFICATION_TYPE><NORAD_CAT_ID>64514</NORAD_CAT_ID><ELEMENT_SET_NO>999</ELEMENT_SET_NO><REV_AT_EPOCH>697</REV_AT_EPOCH><BSTAR>.8574E-3</BSTAR><MEAN_MOTION_DOT>.30712E-3</MEAN_MOTION_DOT><MEAN_MOTION_DDOT>0</MEAN_MOTION_DDOT></tleParameters></data></segment></body></omm>
<omm id="CCSDS_OMM_VERS" version="2.0">
<header><CREATION_DATE/><ORIGINATOR/></header><body><segment><metadata><OBJECT_NAME>KUIPER-00055</OBJECT_NAME><OBJECT_ID>2025-134R</OBJECT_ID><CENTER_NAME>EARTH</CENTER_NAME><REF_FRAME>TEME</REF_FRAME><TIME_SYSTEM>UTC</TIME_SYSTEM><MEAN_ELEMENT_THEORY>SGP4</MEAN_ELEMENT_THEORY></metadata><data><meanElements><EPOCH>2025-07-31T02:33:03.237408</EPOCH><MEAN_MOTION>15.37036088</MEAN_MOTION><ECCENTRICITY>.0000784</ECCENTRICITY><INCLINATION>51.8770</INCLINATION><RA_OF_ASC_NODE>149.0884</RA_OF_ASC_NODE><ARG_OF_PERICENTER>145.9882</ARG_OF_PERICENTER><MEAN_ANOMALY>214.1155</MEAN_ANOMALY></meanElements><tleParameters><EPHEMERIS_TYPE>0</EPHEMERIS_TYPE><CLASSIFICATION_TYPE>U</CLASSIFICATION_TYPE><NORAD_CAT_ID>64515</NORAD_CAT_ID><ELEMENT_SET_NO>999</ELEMENT_SET_NO><REV_AT_EPOCH>688</REV_AT_EPOCH><BSTAR>.57191E-3</BSTAR><MEAN_MOTION_DOT>.20716E-3</MEAN_MOTION_DOT><MEAN_MOTION_DDOT>0</MEAN_MOTION_DDOT></tleParameters></data></segment></body></omm>
<omm id="CCSDS_OMM_VERS" version="2.0">
<header><CREATION_DATE/><ORIGINATOR/></header><body><segment><metadata><OBJECT_NAME>KUIPER-00056</OBJECT_NAME><OBJECT_ID>2025-134S</OBJECT_ID><CENTER_NAME>EARTH</CENTER_NAME><REF_FRAME>TEME</REF_FRAME><TIME_SYSTEM>UTC</TIME_SYSTEM><MEAN_ELEMENT_THEORY>SGP4</MEAN_ELEMENT_THEORY></metadata><data><meanElements><EPOCH>2025-07-31T03:03:27.914688</EPOCH><MEAN_MOTION>15.36191375</MEAN_MOTION><ECCENTRICITY>.0003034</ECCENTRICITY><INCLINATION>51.8734</INCLINATION><RA_OF_ASC_NODE>149.2201</RA_OF_ASC_NODE><ARG_OF_PERICENTER>229.6859</ARG_OF_PERICENTER><MEAN_ANOMALY>130.3863</MEAN_ANOMALY></meanElements><tleParameters><EPHEMERIS_TYPE>0</EPHEMERIS_TYPE><CLASSIFICATION_TYPE>U</CLASSIFICATION_TYPE><NORAD_CAT_ID>64516</NORAD_CAT_ID><ELEMENT_SET_NO>999</ELEMENT_SET_NO><REV_AT_EPOCH>657</REV_AT_EPOCH><BSTAR>.94199E-3</BSTAR><MEAN_MOTION_DOT>.33502E-3</MEAN_MOTION_DOT><MEAN_MOTION_DDOT>0</MEAN_MOTION_DDOT></tleParameters></data></segment></body></omm>
<omm id="CCSDS_OMM_VERS" version="2.0">
<header><CREATION_DATE/><ORIGINATOR/></header><body><segment><metadata><OBJECT_NAME>KUIPER-00057</OBJECT_NAME><OBJECT_ID>2025-134T</OBJECT_ID><CENTER_NAME>EARTH</CENTER_NAME><REF_FRAME>TEME</REF_FRAME><TIME_SYSTEM>UTC</TIME_SYSTEM><MEAN_ELEMENT_THEORY>SGP4</MEAN_ELEMENT_THEORY></metadata><data><meanElements><EPOCH>2025-07-31T05:07:07.751424</EPOCH><MEAN_MOTION>15.35202223</MEAN_MOTION><ECCENTRICITY>.0005658</ECCENTRICITY><INCLINATION>51.8703</INCLINATION><RA_OF_ASC_NODE>149.0295</RA_OF_ASC_NODE><ARG_OF_PERICENTER>249.3346</ARG_OF_PERICENTER><MEAN_ANOMALY>110.7033</MEAN_ANOMALY></meanElements><tleParameters><EPHEMERIS_TYPE>0</EPHEMERIS_TYPE><CLASSIFICATION_TYPE>U</CLASSIFICATION_TYPE><NORAD_CAT_ID>64517</NORAD_CAT_ID><ELEMENT_SET_NO>999</ELEMENT_SET_NO><REV_AT_EPOCH>669</REV_AT_EPOCH><BSTAR>.58942E-3</BSTAR><MEAN_MOTION_DOT>.2013E-3</MEAN_MOTION_DOT><MEAN_MOTION_DDOT>0</MEAN_MOTION_DDOT></tleParameters></data></segment></body></omm>
<omm id="CCSDS_OMM_VERS" version="2.0">
<header><CREATION_DATE/><ORIGINATOR/></header><body><segment><metadata><OBJECT_NAME>KUIPER-00058</OBJECT_NAME><OBJECT_ID>2025-134U</OBJECT_ID><CENTER_NAME>EARTH</CENTER_NAME><REF_FRAME>TEME</REF_FRAME><TIME_SYSTEM>UTC</TIME_SYSTEM><MEAN_ELEMENT_THEORY>SGP4</MEAN_ELEMENT_THEORY></metadata><data><meanElements><EPOCH>2025-07-31T04:49:20.905824</EPOCH><MEAN_MOTION>15.35862020</MEAN_MOTION><ECCENTRICITY>.0004338</ECCENTRICITY><INCLINATION>51.8717</INCLINATION><RA_OF_ASC_NODE>148.9572</RA_OF_ASC_NODE><ARG_OF_PERICENTER>242.2119</ARG_OF_PERICENTER><MEAN_ANOMALY>117.8428</MEAN_ANOMALY></meanElements><tleParameters><EPHEMERIS_TYPE>0</EPHEMERIS_TYPE><CLASSIFICATION_TYPE>U</CLASSIFICATION_TYPE><NORAD_CAT_ID>64518</NORAD_CAT_ID><ELEMENT_SET_NO>999</ELEMENT_SET_NO><REV_AT_EPOCH>658</REV_AT_EPOCH><BSTAR>.6961E-3</BSTAR><MEAN_MOTION_DOT>.24367E-3</MEAN_MOTION_DOT><MEAN_MOTION_DDOT>0</MEAN_MOTION_DDOT></tleParameters></data></segment></body></omm>
<omm id="CCSDS_OMM_VERS" version="2.0">
<header><CREATION_DATE/><ORIGINATOR/></header><body><segment><metadata><OBJECT_NAME>KUIPER-00059</OBJECT_NAME><OBJECT_ID>2025-134V</OBJECT_ID><CENTER_NAME>EARTH</CENTER_NAME><REF_FRAME>TEME</REF_FRAME><TIME_SYSTEM>UTC</TIME_SYSTEM><MEAN_ELEMENT_THEORY>SGP4</MEAN_ELEMENT_THEORY></metadata><data><meanElements><EPOCH>2025-07-31T04:09:32.839200</EPOCH><MEAN_MOTION>15.37027833</MEAN_MOTION><ECCENTRICITY>.0001367</ECCENTRICITY><INCLINATION>51.8761</INCLINATION><RA_OF_ASC_NODE>148.7833</RA_OF_ASC_NODE><ARG_OF_PERICENTER>164.4600</ARG_OF_PERICENTER><MEAN_ANOMALY>195.6429</MEAN_ANOMALY></meanElements><tleParameters><EPHEMERIS_TYPE>0</EPHEMERIS_TYPE><CLASSIFICATION_TYPE>U</CLASSIFICATION_TYPE><NORAD_CAT_ID>64519</NORAD_CAT_ID><ELEMENT_SET_NO>999</ELEMENT_SET_NO><REV_AT_EPOCH>657</REV_AT_EPOCH><BSTAR>.11702E-2</BSTAR><MEAN_MOTION_DOT>.4291E-3</MEAN_MOTION_DOT><MEAN_MOTION_DDOT>0</MEAN_MOTION_DDOT></tleParameters></data></segment></body></omm>
<omm id="CCSDS_OMM_VERS" version="2.0">
<header><CREATION_DATE/><ORIGINATOR/></header><body><segment><metadata><OBJECT_NAME>KUIPER-00060</OBJECT_NAME><OBJECT_ID>2025-134W</OBJECT_ID><CENTER_NAME>EARTH</CENTER_NAME><REF_FRAME>TEME</REF_FRAME><TIME_SYSTEM>UTC</TIME_SYSTEM><MEAN_ELEMENT_THEORY>SGP4</MEAN_ELEMENT_THEORY></metadata><data><meanElements><EPOCH>2025-07-31T02:43:38.675712</EPOCH><MEAN_MOTION>15.36841686</MEAN_MOTION><ECCENTRICITY>.0002047</ECCENTRICITY><INCLINATION>51.8760</INCLINATION><RA_OF_ASC_NODE>149.1353</RA_OF_ASC_NODE><ARG_OF_PERICENTER>184.2363</ARG_OF_PERICENTER><MEAN_ANOMALY>175.8607</MEAN_ANOMALY></meanElements><tleParameters><EPHEMERIS_TYPE>0</EPHEMERIS_TYPE><CLASSIFICATION_TYPE>U</CLASSIFICATION_TYPE><NORAD_CAT_ID>64520</NORAD_CAT_ID><ELEMENT_SET_NO>999</ELEMENT_SET_NO><REV_AT_EPOCH>657</REV_AT_EPOCH><BSTAR>.10746E-2</BSTAR><MEAN_MOTION_DOT>.39116E-3</MEAN_MOTION_DOT><MEAN_MOTION_DDOT>0</MEAN_MOTION_DDOT></tleParameters></data></segment></body></omm>

</ndm>
