KUIPER-00053            
1 64513U 25134P   25212.11711965  .00019163  00000+0  53681-3 0  9992
2 64513  51.8762 149.1573 0001830 218.4169 141.6687 15.36633967  6573
KUIPER-00054            
1 64514U 25134Q   25212.12185746  .00030712  00000+0  85740-3 0  9990
2 64514  51.8749 149.1860 0002429 222.0017 138.0783 15.36459294  6976
KUIPER-00055            
1 64515U 25134R   25212.10628747  .00020716  00000+0  57191-3 0  9994
2 64515  51.8770 149.0884 0000784 145.9882 214.1155 15.37036088  6883
KUIPER-00056            
1 64516U 25134S   25212.12740642  .00033502  00000+0  94199-3 0  9992
2 64516  51.8734 149.2201 0003034 229.6859 130.3863 15.36191375  6575
KUIPER-00057            
1 64517U 25134T   25212.21328416  .00020130  00000+0  58942-3 0  9993
2 64517  51.8703 149.0295 0005658 249.3346 110.7033 15.35202223  6695
KUIPER-00058            
1 64518U 25134U   25212.20093641  .00024367  00000+0  69610-3 0  9992
2 64518  51.8717 148.9572 0004338 242.2119 117.8428 15.35862020  6582
KUIPER-00059            
1 64519U 25134V   25212.17329675  .00042910  00000+0  11702-2 0  9990
2 64519  51.8761 148.7833 0001367 164.4600 195.6429 15.37027833  6570
KUIPER-00060            
1 64520U 25134W   25212.11364208  .00039116  00000+0  10746-2 0  9998
2 64520  51.8760 149.1353 0002047 184.2363 175.8607 15.36841686  6572
